KUIPER-00079            
1 64826U 25151L   25230.91668981 -.00011431  00000+0 -39720-3 0  9995
2 64826  51.8792 125.6067 0005103 271.9445 332.5802 15.28247465  4706
KUIPER-00080            
1 64827U 25151M   25230.93516447  .00011284  00000+0  39124-3 0  9999
2 64827  51.8788 125.5368 0002968 290.8932  69.1733 15.30281619  5161
KUIPER-00082            
1 64828U 25151N   25230.90885505  .00012465  00000+0  35829-3 0  9991
2 64828  51.8794 125.3442 0004900 257.6941 102.3497 15.36181843  5160
KUIPER-00083            
1 64829U 25151P   25230.91723998  .00039497  00000+0  11195-2 0  9993
2 64829  51.8754 125.3930 0005130 266.4867  93.5532 15.35854217  6354
KUIPER-00084            
1 64830U 25151Q   25231.00002315 -.00004761  00000+0 -22320-3 0  9990
2 64830  51.8893 126.5785 0006954 254.5507 121.6429 15.16826720  5157
KUIPER-00085            
1 64831U 25151R   25230.90607201  .00031925  00000+0  89360-3 0  9991
2 64831  51.8793 125.3273 0005516 251.7898 108.2489 15.36347464  5164
KUIPER-00086            
1 64832U 25151S   25231.58335648  .00060198  00000+0  17808-2 0  9991
2 64832  51.8788 122.2537 0006111 274.8964 133.2614 15.34316602  5256
KUIPER-00087            
1 64833U 25151T   25230.97627032  .00017222  00000+0  49291-3 0  9997
2 64833  51.8790 125.0482 0004980 256.2402 103.8030 15.36032908  5175
